ONEWEB-0018             
1 45434U 20020L   25201.25065112 -.00000427  00000+0 -12415-2 0  9995
2 45434  87.8823  87.2249 0001860  78.7320 281.4017 13.11417221259127
ONEWEB-0083             
1 45435U 20020M   25201.39306550 -.00000385  00000+0 -11210-2 0  9990
2 45435  87.8828  87.1818 0001792  76.2180 283.9148 13.11414426259187
ONEWEB-0095             
1 45436U 20020N   25201.38473427 -.00000026  00000+0 -10804-3 0  9999
2 45436  87.8817  87.2082 0001098  68.9326 291.1919 13.11416558259184
ONEWEB-0092             
1 45437U 20020P   25201.43292392  .00000421  00000+0  11534-2 0  9993
2 45437  87.8823  87.1863 0001565  78.0319 282.0985 13.11417725259304
ONEWEB-0085             
1 45438U 20020Q   25201.38543968 -.00000057  00000+0 -19539-3 0  9997
2 45438  87.8821  87.2082 0001638  78.1612 281.9700 13.11414336259189
ONEWEB-0096             
1 45439U 20020R   25201.39475630 -.00000391  00000+0 -11401-2 0  9999
2 45439  87.8832  87.1726 0001980  82.8673 277.2680 13.11414784259176
ONEWEB-0037             
1 45440U 20020S   25201.37528236  .00000332  00000+0  90087-3 0  9991
2 45440  87.8836  87.1402 0001710  78.4704 281.6616 13.11415385259200
ONEWEB-0042             
1 45441U 20020T   25201.38446946 -.00000051  00000+0 -17882-3 0  9992
2 45441  87.8825  87.1845 0001765  81.4109 278.7219 13.11416736259176
